[{"OBJECT_NAME":"WEILAI 1R","OBJECT_ID":"2019-093F","EPOCH":"2026-03-09T22:33:48.244608","MEAN_MOTION":14.997592,"ECCENTRICITY":0.00116762,"INCLINATION":97.7939,"RA_OF_ASC_NODE":158.7373,"ARG_OF_PERICENTER":23.5076,"MEAN_ANOMALY":336.6679,"EPHEMERIS_TYPE":0,"CLASSIFICATION_TYPE":"U","NORAD_CAT_ID":44884,"ELEMENT_SET_NO":999,"REV_AT_EPOCH":33754,"BSTAR":0.00050142794,"MEAN_MOTION_DOT":6.146e-5,"MEAN_MOTION_DDOT":0},{"OBJECT_NAME":"STARLINK-35890","OBJECT_ID":"2025-280Q","EPOCH":"2026-03-09T22:39:14.243904","MEAN_MOTION":14.983291,"ECCENTRICITY":0.00027531,"INCLINATION":70.0024,"RA_OF_ASC_NODE":333.8241,"ARG_OF_PERICENTER":264.1661,"MEAN_ANOMALY":95.9184,"EPHEMERIS_TYPE":0,"CLASSIFICATION_TYPE":"U","NORAD_CAT_ID":66835,"ELEMENT_SET_NO":999,"REV_AT_EPOCH":1611,"BSTAR":0.00028267663,"MEAN_MOTION_DOT":3.281e-5,"MEAN_MOTION_DDOT":0}]
